{
  "type": "FeatureCollection",
  "features": [
    {
      "type": "Feature",
      "properties": {
        "norad_id": 31266,
        "name": "FENGYUN 1C DEB",
        "group": "fengyun-1c-debris",
        "lat": 12.561850630925086,
        "lon": -41.75628291862593,
        "alt_km": 775.0554940229085,
        "timestamp": "2025-12-03T17:47:50.998870+00:00",
        "meta_object_name": "FENGYUN 1C DEB",
        "meta_object_id": "1999-025BMY",
        "meta_epoch": "2025-12-03T05:59:43.613376",
        "meta_mean_motion": 14.2230717,
        "meta_eccentricity": 0.0129947,
        "meta_inclination": 99.256,
        "meta_ra_of_asc_node": 319.81,
        "meta_arg_of_pericenter": 311.3886,
        "meta_mean_anomaly": 63.6117,
        "meta_ephemeris_type": 0,
        "meta_classification_type": "U",
        "meta_norad_cat_id": 31266,
        "meta_element_set_no": 999,
        "meta_rev_at_epoch": 97071,
        "meta_bstar": 0.0005268,
        "meta_mean_motion_dot": 1.227e-05,
        "meta_mean_motion_ddot": 0,
        "tle_line1": "1 31266U 99025BMY 25337.24981034  .00001227  00000+0  52680-3 0  9999",
        "tle_line2": "2 31266  99.2560 319.8100 0129947 311.3886  63.6117 14.22307170970710"
      },
      "geometry": {
        "type": "Point",
        "coordinates": [
          -41.75628291862593,
          12.561850630925086
        ]
      }
    },
    {
      "type": "Feature",
      "properties": {
        "norad_id": 31268,
        "name": "FENGYUN 1C DEB",
        "group": "fengyun-1c-debris",
        "lat": -47.277640184450945,
        "lon": 29.85074851207286,
        "alt_km": 886.7811601466656,
        "timestamp": "2025-12-03T17:47:50.998880+00:00",
        "meta_object_name": "FENGYUN 1C DEB",
        "meta_object_id": "1999-025BNA",
        "meta_epoch": "2025-11-30T20:01:13.105344",
        "meta_mean_motion": 14.06369123,
        "meta_eccentricity": 0.00492969,
        "meta_inclination": 98.7575,
        "meta_ra_of_asc_node": 17.4295,
        "meta_arg_of_pericenter": 216.6529,
        "meta_mean_anomaly": 143.1264,
        "meta_ephemeris_type": 0,
        "meta_classification_type": "U",
        "meta_norad_cat_id": 31268,
        "meta_element_set_no": 999,
        "meta_rev_at_epoch": 61865,
        "meta_bstar": 0.00085236082,
        "meta_mean_motion_dot": 1.38e-05,
        "meta_mean_motion_ddot": 0,
        "tle_line1": "1 31268U 99025BNA 25334.83417946  .00001380  00000+0  85236-3 0  9992",
        "tle_line2": "2 31268  98.7575  17.4295 0049296 216.6529 143.1264 14.06369123618654"
      },
      "geometry": {
        "type": "Point",
        "coordinates": [
          29.85074851207286,
          -47.277640184450945
        ]
      }
    },
    {
      "type": "Feature",
      "properties": {
        "norad_id": 31269,
        "name": "FENGYUN 1C DEB",
        "group": "fengyun-1c-debris",
        "lat": -58.830211875290686,
        "lon": -130.09042755223007,
        "alt_km": 582.3006697898718,
        "timestamp": "2025-12-03T17:47:50.998890+00:00",
        "meta_object_name": "FENGYUN 1C DEB",
        "meta_object_id": "1999-025BNB",
        "meta_epoch": "2025-12-03T05:21:48.651264",
        "meta_mean_motion": 14.43359307,
        "meta_eccentricity": 0.0241889,
        "meta_inclination": 98.1813,
        "meta_ra_of_asc_node": 215.6529,
        "meta_arg_of_pericenter": 304.5693,
        "meta_mean_anomaly": 185.362,
        "meta_ephemeris_type": 0,
        "meta_classification_type": "U",
        "meta_norad_cat_id": 31269,
        "meta_element_set_no": 999,
        "meta_rev_at_epoch": 96349,
        "meta_bstar": 0.0032129,
        "meta_mean_motion_dot": 0.00015446,
        "meta_mean_motion_ddot": 0,
        "tle_line1": "1 31269U 99025BNB 25337.22347976  .00015446  00000+0  32129-2 0  9994",
        "tle_line2": "2 31269  98.1813 215.6529 0241889 304.5693 185.3620 14.43359307963490"
      },
      "geometry": {
        "type": "Point",
        "coordinates": [
          -130.09042755223007,
          -58.830211875290686
        ]
      }
    },
    {
      "type": "Feature",
      "properties": {
        "norad_id": 31272,
        "name": "FENGYUN 1C DEB",
        "group": "fengyun-1c-debris",
        "lat": 42.29664841050252,
        "lon": -159.12508052727543,
        "alt_km": 818.5826185172082,
        "timestamp": "2025-12-03T17:47:50.998900+00:00",
        "meta_object_name": "FENGYUN 1C DEB",
        "meta_object_id": "1999-025BNE",
        "meta_epoch": "2025-12-03T09:09:21.720096",
        "meta_mean_motion": 14.22886363,
        "meta_eccentricity": 0.0106425,
        "meta_inclination": 99.0924,
        "meta_ra_of_asc_node": 208.8811,
        "meta_arg_of_pericenter": 139.5439,
        "meta_mean_anomaly": 221.3713,
        "meta_ephemeris_type": 0,
        "meta_classification_type": "U",
        "meta_norad_cat_id": 31272,
        "meta_element_set_no": 999,
        "meta_rev_at_epoch": 96856,
        "meta_bstar": 0.00065343,
        "meta_mean_motion_dot": 1.51e-05,
        "meta_mean_motion_ddot": 0,
        "tle_line1": "1 31272U 99025BNE 25337.38150139  .00001510  00000+0  65343-3 0  9990",
        "tle_line2": "2 31272  99.0924 208.8811 0106425 139.5439 221.3713 14.22886363968566"
      },
      "geometry": {
        "type": "Point",
        "coordinates": [
          -159.12508052727543,
          42.29664841050252
        ]
      }
    },
    {
      "type": "Feature",
      "properties": {
        "norad_id": 31274,
        "name": "FENGYUN 1C DEB",
        "group": "fengyun-1c-debris",
        "lat": -2.25336005788504,
        "lon": 157.81018405292437,
        "alt_km": 1072.3564859754797,
        "timestamp": "2025-12-03T17:47:50.998910+00:00",
        "meta_object_name": "FENGYUN 1C DEB",
        "meta_object_id": "1999-025BNG",
        "meta_epoch": "2025-12-01T22:28:53.759712",
        "meta_mean_motion": 13.85582088,
        "meta_eccentricity": 0.02387222,
        "meta_inclination": 99.0033,
        "meta_ra_of_asc_node": 155.7174,
        "meta_arg_of_pericenter": 139.3293,
        "meta_mean_anomaly": 222.5966,
        "meta_ephemeris_type": 0,
        "meta_classification_type": "U",
        "meta_norad_cat_id": 31274,
        "meta_element_set_no": 999,
        "meta_rev_at_epoch": 94057,
        "meta_bstar": 0.0013381818,
        "meta_mean_motion_dot": 1.869e-05,
        "meta_mean_motion_ddot": 0,
        "tle_line1": "1 31274U 99025BNG 25335.93673333  .00001869  00000+0  13382-2 0  9999",
        "tle_line2": "2 31274  99.0033 155.7174 0238722 139.3293 222.5966 13.85582088940572"
      },
      "geometry": {
        "type": "Point",
        "coordinates": [
          157.81018405292437,
          -2.25336005788504
        ]
      }
    },
    {
      "type": "Feature",
      "properties": {
        "norad_id": 31275,
        "name": "FENGYUN 1C DEB",
        "group": "fengyun-1c-debris",
        "lat": 12.587206755568726,
        "lon": 19.22396823937138,
        "alt_km": 811.5709989938559,
        "timestamp": "2025-12-03T17:47:50.998920+00:00",
        "meta_object_name": "FENGYUN 1C DEB",
        "meta_object_id": "1999-025BNH",
        "meta_epoch": "2025-12-03T09:10:33.731040",
        "meta_mean_motion": 14.02282912,
        "meta_eccentricity": 0.0104289,
        "meta_inclination": 98.9476,
        "meta_ra_of_asc_node": 20.8873,
        "meta_arg_of_pericenter": 19.3104,
        "meta_mean_anomaly": 341.1968,
        "meta_ephemeris_type": 0,
        "meta_classification_type": "U",
        "meta_norad_cat_id": 31275,
        "meta_element_set_no": 999,
        "meta_rev_at_epoch": 95355,
        "meta_bstar": 0.0011463,
        "meta_mean_motion_dot": 1.799e-05,
        "meta_mean_motion_ddot": 0,
        "tle_line1": "1 31275U 99025BNH 25337.38233485  .00001799  00000+0  11463-2 0  9991",
        "tle_line2": "2 31275  98.9476  20.8873 0104289  19.3104 341.1968 14.02282912953553"
      },
      "geometry": {
        "type": "Point",
        "coordinates": [
          19.22396823937138,
          12.587206755568726
        ]
      }
    },
    {
      "type": "Feature",
      "properties": {
        "norad_id": 31279,
        "name": "FENGYUN 1C DEB",
        "group": "fengyun-1c-debris",
        "lat": 64.12979900390353,
        "lon": -175.72423493235632,
        "alt_km": 797.166271816297,
        "timestamp": "2025-12-03T17:47:50.998930+00:00",
        "meta_object_name": "FENGYUN 1C DEB",
        "meta_object_id": "1999-025BNM",
        "meta_epoch": "2025-12-03T07:09:18.210816",
        "meta_mean_motion": 14.26271329,
        "meta_eccentricity": 0.0073246,
        "meta_inclination": 98.5172,
        "meta_ra_of_asc_node": 345.8443,
        "meta_arg_of_pericenter": 205.3522,
        "meta_mean_anomaly": 154.4058,
        "meta_ephemeris_type": 0,
        "meta_classification_type": "U",
        "meta_norad_cat_id": 31279,
        "meta_element_set_no": 999,
        "meta_rev_at_epoch": 97094,
        "meta_bstar": 0.0006967,
        "meta_mean_motion_dot": 1.676e-05,
        "meta_mean_motion_ddot": 0,
        "tle_line1": "1 31279U 99025BNM 25337.29812744  .00001676  00000+0  69670-3 0  9994",
        "tle_line2": "2 31279  98.5172 345.8443 0073246 205.3522 154.4058 14.26271329970941"
      },
      "geometry": {
        "type": "Point",
        "coordinates": [
          -175.72423493235632,
          64.12979900390353
        ]
      }
    }
  ]
}